<?xml version="1.0" encoding="UTF-8"?>
<ndm xmlns:xsi="http://www.w3.org/2001/XMLSchema-instance" xsi:noNamespaceSchemaLocation="https://sanaregistry.org/r/ndmxml_unqualified/ndmxml-2.0.0-master-2.0.xsd">
<omm id="CCSDS_OMM_VERS" version="2.0">
<header><CREATION_DATE/><ORIGINATOR/></header><body><segment><metadata><OBJECT_NAME>ONEWEB-0534</OBJECT_NAME><OBJECT_ID>2023-029B</OBJECT_ID><CENTER_NAME>EARTH</CENTER_NAME><REF_FRAME>TEME</REF_FRAME><TIME_SYSTEM>UTC</TIME_SYSTEM><MEAN_ELEMENT_THEORY>SGP4</MEAN_ELEMENT_THEORY></metadata><data><meanElements><EPOCH>2024-06-30T22:46:23.455776</EPOCH><MEAN_MOTION>13.20770440</MEAN_MOTION><ECCENTRICITY>.0002059</ECCENTRICITY><INCLINATION>87.9205</INCLINATION><RA_OF_ASC_NODE>56.9842</RA_OF_ASC_NODE><ARG_OF_PERICENTER>83.0603</ARG_OF_PERICENTER><MEAN_ANOMALY>277.0764</MEAN_ANOMALY></meanElements><tleParameters><EPHEMERIS_TYPE>0</EPHEMERIS_TYPE><CLASSIFICATION_TYPE>U</CLASSIFICATION_TYPE><NORAD_CAT_ID>55797</NORAD_CAT_ID><ELEMENT_SET_NO>999</ELEMENT_SET_NO><REV_AT_EPOCH>6660</REV_AT_EPOCH><BSTAR>-.49706E-4</BSTAR><MEAN_MOTION_DOT>-.7E-7</MEAN_MOTION_DOT><MEAN_MOTION_DDOT>0</MEAN_MOTION_DDOT></tleParameters></data></segment></body></omm>
<omm id="CCSDS_OMM_VERS" version="2.0">
<header><CREATION_DATE/><ORIGINATOR/></header><body><segment><metadata><OBJECT_NAME>ONEWEB-0556</OBJECT_NAME><OBJECT_ID>2023-029C</OBJECT_ID><CENTER_NAME>EARTH</CENTER_NAME><REF_FRAME>TEME</REF_FRAME><TIME_SYSTEM>UTC</TIME_SYSTEM><MEAN_ELEMENT_THEORY>SGP4</MEAN_ELEMENT_THEORY></metadata><data><meanElements><EPOCH>2024-06-30T22:55:30.899136</EPOCH><MEAN_MOTION>13.20771222</MEAN_MOTION><ECCENTRICITY>.0002557</ECCENTRICITY><INCLINATION>87.9205</INCLINATION><RA_OF_ASC_NODE>56.9764</RA_OF_ASC_NODE><ARG_OF_PERICENTER>97.6716</ARG_OF_PERICENTER><MEAN_ANOMALY>262.4708</MEAN_ANOMALY></meanElements><tleParameters><EPHEMERIS_TYPE>0</EPHEMERIS_TYPE><CLASSIFICATION_TYPE>U</CLASSIFICATION_TYPE><NORAD_CAT_ID>55798</NORAD_CAT_ID><ELEMENT_SET_NO>999</ELEMENT_SET_NO><REV_AT_EPOCH>6660</REV_AT_EPOCH><BSTAR>.37074E-3</BSTAR><MEAN_MOTION_DOT>.164E-5</MEAN_MOTION_DOT><MEAN_MOTION_DDOT>0</MEAN_MOTION_DDOT></tleParameters></data></segment></body></omm>
<omm id="CCSDS_OMM_VERS" version="2.0">
<header><CREATION_DATE/><ORIGINATOR/></header><body><segment><metadata><OBJECT_NAME>ONEWEB-0562</OBJECT_NAME><OBJECT_ID>2023-029D</OBJECT_ID><CENTER_NAME>EARTH</CENTER_NAME><REF_FRAME>TEME</REF_FRAME><TIME_SYSTEM>UTC</TIME_SYSTEM><MEAN_ELEMENT_THEORY>SGP4</MEAN_ELEMENT_THEORY></metadata><data><meanElements><EPOCH>2024-07-01T04:04:34.154400</EPOCH><MEAN_MOTION>13.20773018</MEAN_MOTION><ECCENTRICITY>.0002243</ECCENTRICITY><INCLINATION>87.9205</INCLINATION><RA_OF_ASC_NODE>56.9241</RA_OF_ASC_NODE><ARG_OF_PERICENTER>111.1323</ARG_OF_PERICENTER><MEAN_ANOMALY>249.0050</MEAN_ANOMALY></meanElements><tleParameters><EPHEMERIS_TYPE>0</EPHEMERIS_TYPE><CLASSIFICATION_TYPE>U</CLASSIFICATION_TYPE><NORAD_CAT_ID>55799</NORAD_CAT_ID><ELEMENT_SET_NO>999</ELEMENT_SET_NO><REV_AT_EPOCH>6731</REV_AT_EPOCH><BSTAR>.85692E-4</BSTAR><MEAN_MOTION_DOT>.48E-6</MEAN_MOTION_DOT><MEAN_MOTION_DDOT>0</MEAN_MOTION_DDOT></tleParameters></data></segment></body></omm>
<omm id="CCSDS_OMM_VERS" version="2.0">
<header><CREATION_DATE/><ORIGINATOR/></header><body><segment><metadata><OBJECT_NAME>ONEWEB-0563</OBJECT_NAME><OBJECT_ID>2023-029E</OBJECT_ID><CENTER_NAME>EARTH</CENTER_NAME><REF_FRAME>TEME</REF_FRAME><TIME_SYSTEM>UTC</TIME_SYSTEM><MEAN_ELEMENT_THEORY>SGP4</MEAN_ELEMENT_THEORY></metadata><data><meanElements><EPOCH>2024-06-30T22:28:12.374976</EPOCH><MEAN_MOTION>13.20772916</MEAN_MOTION><ECCENTRICITY>.0002182</ECCENTRICITY><INCLINATION>87.9205</INCLINATION><RA_OF_ASC_NODE>56.9857</RA_OF_ASC_NODE><ARG_OF_PERICENTER>86.6890</ARG_OF_PERICENTER><MEAN_ANOMALY>273.4493</MEAN_ANOMALY></meanElements><tleParameters><EPHEMERIS_TYPE>0</EPHEMERIS_TYPE><CLASSIFICATION_TYPE>U</CLASSIFICATION_TYPE><NORAD_CAT_ID>55800</NORAD_CAT_ID><ELEMENT_SET_NO>999</ELEMENT_SET_NO><REV_AT_EPOCH>6659</REV_AT_EPOCH><BSTAR>.32354E-4</BSTAR><MEAN_MOTION_DOT>.26E-6</MEAN_MOTION_DOT><MEAN_MOTION_DDOT>0</MEAN_MOTION_DDOT></tleParameters></data></segment></body></omm>
<omm id="CCSDS_OMM_VERS" version="2.0">
<header><CREATION_DATE/><ORIGINATOR/></header><body><segment><metadata><OBJECT_NAME>ONEWEB-0564</OBJECT_NAME><OBJECT_ID>2023-029F</OBJECT_ID><CENTER_NAME>EARTH</CENTER_NAME><REF_FRAME>TEME</REF_FRAME><TIME_SYSTEM>UTC</TIME_SYSTEM><MEAN_ELEMENT_THEORY>SGP4</MEAN_ELEMENT_THEORY></metadata><data><meanElements><EPOCH>2024-06-30T22:19:06.586176</EPOCH><MEAN_MOTION>13.20774687</MEAN_MOTION><ECCENTRICITY>.0001666</ECCENTRICITY><INCLINATION>87.9205</INCLINATION><RA_OF_ASC_NODE>56.9722</RA_OF_ASC_NODE><ARG_OF_PERICENTER>94.7697</ARG_OF_PERICENTER><MEAN_ANOMALY>265.3626</MEAN_ANOMALY></meanElements><tleParameters><EPHEMERIS_TYPE>0</EPHEMERIS_TYPE><CLASSIFICATION_TYPE>U</CLASSIFICATION_TYPE><NORAD_CAT_ID>55801</NORAD_CAT_ID><ELEMENT_SET_NO>999</ELEMENT_SET_NO><REV_AT_EPOCH>6660</REV_AT_EPOCH><BSTAR>.10658E-3</BSTAR><MEAN_MOTION_DOT>.56E-6</MEAN_MOTION_DOT><MEAN_MOTION_DDOT>0</MEAN_MOTION_DDOT></tleParameters></data></segment></body></omm>
<omm id="CCSDS_OMM_VERS" version="2.0">
<header><CREATION_DATE/><ORIGINATOR/></header><body><segment><metadata><OBJECT_NAME>ONEWEB-0638</OBJECT_NAME><OBJECT_ID>2023-029G</OBJECT_ID><CENTER_NAME>EARTH</CENTER_NAME><REF_FRAME>TEME</REF_FRAME><TIME_SYSTEM>UTC</TIME_SYSTEM><MEAN_ELEMENT_THEORY>SGP4</MEAN_ELEMENT_THEORY></metadata><data><meanElements><EPOCH>2024-06-30T17:51:31.558464</EPOCH><MEAN_MOTION>13.14505595</MEAN_MOTION><ECCENTRICITY>.000256</ECCENTRICITY><INCLINATION>87.8960</INCLINATION><RA_OF_ASC_NODE>72.2932</RA_OF_ASC_NODE><ARG_OF_PERICENTER>84.8106</ARG_OF_PERICENTER><MEAN_ANOMALY>275.3316</MEAN_ANOMALY></meanElements><tleParameters><EPHEMERIS_TYPE>0</EPHEMERIS_TYPE><CLASSIFICATION_TYPE>U</CLASSIFICATION_TYPE><NORAD_CAT_ID>55802</NORAD_CAT_ID><ELEMENT_SET_NO>999</ELEMENT_SET_NO><REV_AT_EPOCH>6527</REV_AT_EPOCH><BSTAR>.98285E-4</BSTAR><MEAN_MOTION_DOT>.49E-6</MEAN_MOTION_DOT><MEAN_MOTION_DDOT>0</MEAN_MOTION_DDOT></tleParameters></data></segment></body></omm>
<omm id="CCSDS_OMM_VERS" version="2.0">
<header><CREATION_DATE/><ORIGINATOR/></header><body><segment><metadata><OBJECT_NAME>ONEWEB-0639</OBJECT_NAME><OBJECT_ID>2023-029H</OBJECT_ID><CENTER_NAME>EARTH</CENTER_NAME><REF_FRAME>TEME</REF_FRAME><TIME_SYSTEM>UTC</TIME_SYSTEM><MEAN_ELEMENT_THEORY>SGP4</MEAN_ELEMENT_THEORY></metadata><data><meanElements><EPOCH>2024-07-01T04:04:26.464800</EPOCH><MEAN_MOTION>13.19724109</MEAN_MOTION><ECCENTRICITY>.0003053</ECCENTRICITY><INCLINATION>87.9153</INCLINATION><RA_OF_ASC_NODE>87.4588</RA_OF_ASC_NODE><ARG_OF_PERICENTER>55.7988</ARG_OF_PERICENTER><MEAN_ANOMALY>304.3433</MEAN_ANOMALY></meanElements><tleParameters><EPHEMERIS_TYPE>0</EPHEMERIS_TYPE><CLASSIFICATION_TYPE>U</CLASSIFICATION_TYPE><NORAD_CAT_ID>55803</NORAD_CAT_ID><ELEMENT_SET_NO>999</ELEMENT_SET_NO><REV_AT_EPOCH>6515</REV_AT_EPOCH><BSTAR>.17063E-3</BSTAR><MEAN_MOTION_DOT>.81E-6</MEAN_MOTION_DOT><MEAN_MOTION_DDOT>0</MEAN_MOTION_DDOT></tleParameters></data></segment></body></omm>
<omm id="CCSDS_OMM_VERS" version="2.0">
<header><CREATION_DATE/><ORIGINATOR/></header><body><segment><metadata><OBJECT_NAME>ONEWEB-0640</OBJECT_NAME><OBJECT_ID>2023-029J</OBJECT_ID><CENTER_NAME>EARTH</CENTER_NAME><REF_FRAME>TEME</REF_FRAME><TIME_SYSTEM>UTC</TIME_SYSTEM><MEAN_ELEMENT_THEORY>SGP4</MEAN_ELEMENT_THEORY></metadata><data><meanElements><EPOCH>2024-07-01T05:02:53.525472</EPOCH><MEAN_MOTION>13.14505701</MEAN_MOTION><ECCENTRICITY>.0002775</ECCENTRICITY><INCLINATION>87.8958</INCLINATION><RA_OF_ASC_NODE>72.1959</RA_OF_ASC_NODE><ARG_OF_PERICENTER>81.6014</ARG_OF_PERICENTER><MEAN_ANOMALY>278.5430</MEAN_ANOMALY></meanElements><tleParameters><EPHEMERIS_TYPE>0</EPHEMERIS_TYPE><CLASSIFICATION_TYPE>U</CLASSIFICATION_TYPE><NORAD_CAT_ID>55804</NORAD_CAT_ID><ELEMENT_SET_NO>999</ELEMENT_SET_NO><REV_AT_EPOCH>6603</REV_AT_EPOCH><BSTAR>.6673E-3</BSTAR><MEAN_MOTION_DOT>.26E-5</MEAN_MOTION_DOT><MEAN_MOTION_DDOT>0</MEAN_MOTION_DDOT></tleParameters></data></segment></body></omm>
<omm id="CCSDS_OMM_VERS" version="2.0">
<header><CREATION_DATE/><ORIGINATOR/></header><body><segment><metadata><OBJECT_NAME>ONEWEB-0641</OBJECT_NAME><OBJECT_ID>2023-029K</OBJECT_ID><CENTER_NAME>EARTH</CENTER_NAME><REF_FRAME>TEME</REF_FRAME><TIME_SYSTEM>UTC</TIME_SYSTEM><MEAN_ELEMENT_THEORY>SGP4</MEAN_ELEMENT_THEORY></metadata><data><meanElements><EPOCH>2024-07-01T03:57:37.358208</EPOCH><MEAN_MOTION>13.19727463</MEAN_MOTION><ECCENTRICITY>.0002129</ECCENTRICITY><INCLINATION>87.9150</INCLINATION><RA_OF_ASC_NODE>87.4415</RA_OF_ASC_NODE><ARG_OF_PERICENTER>70.7489</ARG_OF_PERICENTER><MEAN_ANOMALY>289.3874</MEAN_ANOMALY></meanElements><tleParameters><EPHEMERIS_TYPE>0</EPHEMERIS_TYPE><CLASSIFICATION_TYPE>U</CLASSIFICATION_TYPE><NORAD_CAT_ID>55805</NORAD_CAT_ID><ELEMENT_SET_NO>999</ELEMENT_SET_NO><REV_AT_EPOCH>6516</REV_AT_EPOCH><BSTAR>.12588E-3</BSTAR><MEAN_MOTION_DOT>.63E-6</MEAN_MOTION_DOT><MEAN_MOTION_DDOT>0</MEAN_MOTION_DDOT></tleParameters></data></segment></body></omm>

</ndm>
